{"fetched_at":"2026-07-23T07:05:18.920Z","source":"https://celestrak.org/NORAD/elements/gp.php?GROUP=oneweb&FORMAT=JSON","constellation":"oneweb","records":[{"OBJECT_NAME":"ONEWEB-0033","OBJECT_ID":"2020-008M","EPOCH":"2026-07-22T11:34:24.756672","CLASSIFICATION_TYPE":"U","MEAN_MOTION":13.10375303,"ECCENTRICITY":0.00023124,"INCLINATION":87.8818,"RA_OF_ASC_NODE":29.2415,"ARG_OF_PERICENTER":93.244,"MEAN_ANOMALY":266.8952,"EPHEMERIS_TYPE":0,"NORAD_CAT_ID":45142,"ELEMENT_SET_NO":999,"REV_AT_EPOCH":31283,"BSTAR":-0.00071344247,"MEAN_MOTION_DOT":-0.00000236,"MEAN_MOTION_DDOT":0},{"OBJECT_NAME":"ONEWEB-0035","OBJECT_ID":"2020-008N","EPOCH":"2026-07-22T19:23:44.935008","CLASSIFICATION_TYPE":"U","MEAN_MOTION":13.1037825,"ECCENTRICITY":0.0001828,"INCLINATION":87.882,"RA_OF_ASC_NODE":29.1698,"ARG_OF_PERICENTER":90.7958,"MEAN_ANOMALY":269.3378,"EPHEMERIS_TYPE":0,"NORAD_CAT_ID":45143,"ELEMENT_SET_NO":999,"REV_AT_EPOCH":31260,"BSTAR":0.0017965703,"MEAN_MOTION_DOT":0.0000064,"MEAN_MOTION_DDOT":0},{"OBJECT_NAME":"ONEWEB-0036","OBJECT_ID":"2020-008P","EPOCH":"2026-07-22T11:31:47.551872","CLASSIFICATION_TYPE":"U","MEAN_MOTION":13.10377043,"ECCENTRICITY":0.00016278,"INCLINATION":87.8839,"RA_OF_ASC_NODE":29.254,"ARG_OF_PERICENTER":84.6398,"MEAN_ANOMALY":275.4915,"EPHEMERIS_TYPE":0,"NORAD_CAT_ID":45144,"ELEMENT_SET_NO":999,"REV_AT_EPOCH":31298,"BSTAR":-0.00092092569,"MEAN_MOTION_DOT":-0.00000309,"MEAN_MOTION_DDOT":0},{"OBJECT_NAME":"ONEWEB-0038","OBJECT_ID":"2020-008Q","EPOCH":"2026-07-22T17:21:21.726432","CLASSIFICATION_TYPE":"U","MEAN_MOTION":13.11415775,"ECCENTRICITY":0.00024929,"INCLINATION":87.8905,"RA_OF_ASC_NODE":14.0055,"ARG_OF_PERICENTER":134.981,"MEAN_ANOMALY":225.152,"EPHEMERIS_TYPE":0,"NORAD_CAT_ID":45145,"ELEMENT_SET_NO":999,"REV_AT_EPOCH":31498,"BSTAR":-0.00099158284,"MEAN_MOTION_DOT":-0.00000339,"MEAN_MOTION_DDOT":0},{"OBJECT_NAME":"ONEWEB-0039","OBJECT_ID":"2020-008R","EPOCH":"2026-07-22T18:59:07.471680","CLASSIFICATION_TYPE":"U","MEAN_MOTION":13.10375723,"ECCENTRICITY":0.00013023,"INCLINATION":87.8825,"RA_OF_ASC_NODE":29.171,"ARG_OF_PERICENTER":91.845,"MEAN_ANOMALY":268.2827,"EPHEMERIS_TYPE":0,"NORAD_CAT_ID":45146,"ELEMENT_SET_NO":999,"REV_AT_EPOCH":31282,"BSTAR":-0.00032775105,"MEAN_MOTION_DOT":-0.00000102,"MEAN_MOTION_DDOT":0},{"OBJECT_NAME":"ONEWEB-0040","OBJECT_ID":"2020-008S","EPOCH":"2026-07-22T11:29:30.767712","CLASSIFICATION_TYPE":"U","MEAN_MOTION":13.1037469,"ECCENTRICITY":0.00017437,"INCLINATION":87.8819,"RA_OF_ASC_NODE":29.2436,"ARG_OF_PERICENTER":79.1467,"MEAN_ANOMALY":280.9857,"EPHEMERIS_TYPE":0,"NORAD_CAT_ID":45147,"ELEMENT_SET_NO":999,"REV_AT_EPOCH":31248,"BSTAR":-0.0011316719,"MEAN_MOTION_DOT":-0.00000382,"MEAN_MOTION_DDOT":0},{"OBJECT_NAME":"ONEWEB-0043","OBJECT_ID":"2020-008U","EPOCH":"2026-07-22T11:32:08.941920","CLASSIFICATION_TYPE":"U","MEAN_MOTION":13.10375232,"ECCENTRICITY":0.00012731,"INCLINATION":87.8829,"RA_OF_ASC_NODE":29.2332,"ARG_OF_PERICENTER":88.3644,"MEAN_ANOMALY":271.7629,"EPHEMERIS_TYPE":0,"NORAD_CAT_ID":45149,"ELEMENT_SET_NO":999,"REV_AT_EPOCH":31280,"BSTAR":-0.0014358741,"MEAN_MOTION_DOT":-0.00000489,"MEAN_MOTION_DDOT":0},{"OBJECT_NAME":"ONEWEB-0044","OBJECT_ID":"2020-008V","EPOCH":"2026-07-22T01:13:47.942112","CLASSIFICATION_TYPE":"U","MEAN_MOTION":13.10374109,"ECCENTRICITY":0.00016787,"INCLINATION":87.8824,"RA_OF_ASC_NODE":29.3206,"ARG_OF_PERICENTER":87.0276,"MEAN_ANOMALY":273.1044,"EPHEMERIS_TYPE":0,"NORAD_CAT_ID":45150,"ELEMENT_SET_NO":999,"REV_AT_EPOCH":31304,"BSTAR":0.0018642678,"MEAN_MOTION_DOT":0.00000663,"MEAN_MOTION_DDOT":0},{"OBJECT_NAME":"ONEWEB-0045","OBJECT_ID":"2020-008W","EPOCH":"2026-07-22T20:53:34.485792","CLASSIFICATION_TYPE":"U","MEAN_MOTION":13.11415463,"ECCENTRICITY":0.0001696,"INCLINATION":87.89,"RA_OF_ASC_NODE":13.9563,"ARG_OF_PERICENTER":96.2789,"MEAN_ANOMALY":263.8532,"EPHEMERIS_TYPE":0,"NORAD_CAT_ID":45151,"ELEMENT_SET_NO":999,"REV_AT_EPOCH":31508,"BSTAR":-0.0003310138,"MEAN_MOTION_DOT":-0.00000105,"MEAN_MOTION_DDOT":0},{"OBJECT_NAME":"ONEWEB-0047","OBJECT_ID":"2020-008X","EPOCH":"2026-07-22T19:23:22.631712","CLASSIFICATION_TYPE":"U","MEAN_MOTION":13.10373961,"ECCENTRICITY":0.0001938,"INCLINATION":87.8826,"RA_OF_ASC_NODE":29.1688,"ARG_OF_PERICENTER":94.5557,"MEAN_ANOMALY":265.5791,"EPHEMERIS_TYPE":0,"NORAD_CAT_ID":45152,"ELEMENT_SET_NO":999,"REV_AT_EPOCH":31286,"BSTAR":0.0017065933,"MEAN_MOTION_DOT":0.00000608,"MEAN_MOTION_DDOT":0},{"OBJECT_NAME":"ONEWEB-0048","OBJECT_ID":"2020-008Y","EPOCH":"2026-07-22T19:16:14.922336","CLASSIFICATION_TYPE":"U","MEAN_MOTION":13.10375926,"ECCENTRICITY":0.00017435,"INCLINATION":87.8819,"RA_OF_ASC_NODE":29.188,"ARG_OF_PERICENTER":93.5719,"MEAN_ANOMALY":266.5608,"EPHEMERIS_TYPE":0,"NORAD_CAT_ID":45153,"ELEMENT_SET_NO":999,"REV_AT_EPOCH":31247,"BSTAR":0.0013211911,"MEAN_MOTION_DOT":0.00000474,"MEAN_MOTION_DDOT":0},{"OBJECT_NAME":"ONEWEB-0049","OBJECT_ID":"2020-008Z","EPOCH":"2026-07-22T12:01:06.198816","CLASSIFICATION_TYPE":"U","MEAN_MOTION":13.10374067,"ECCENTRICITY":0.00017479,"INCLINATION":87.8817,"RA_OF_ASC_NODE":29.2373,"ARG_OF_PERICENTER":74.8448,"MEAN_ANOMALY":285.2873,"EPHEMERIS_TYPE":0,"NORAD_CAT_ID":45154,"ELEMENT_SET_NO":999,"REV_AT_EPOCH":31265,"BSTAR":0.0017913407,"MEAN_MOTION_DOT":0.00000638,"MEAN_MOTION_DDOT":0},{"OBJECT_NAME":"ONEWEB-0051","OBJECT_ID":"2020-008AA","EPOCH":"2026-07-22T20:51:07.723296","CLASSIFICATION_TYPE":"U","MEAN_MOTION":13.11415999,"ECCENTRICITY":0.00018305,"INCLINATION":87.8893,"RA_OF_ASC_NODE":13.9619,"ARG_OF_PERICENTER":93.0313,"MEAN_ANOMALY":267.1024,"EPHEMERIS_TYPE":0,"NORAD_CAT_ID":45155,"ELEMENT_SET_NO":999,"REV_AT_EPOCH":31576,"BSTAR":-0.00019394896,"MEAN_MOTION_DOT":-5.6e-7,"MEAN_MOTION_DDOT":0},{"OBJECT_NAME":"ONEWEB-0052","OBJECT_ID":"2020-008AB","EPOCH":"2026-07-22T18:00:41.530752","CLASSIFICATION_TYPE":"U","MEAN_MOTION":13.10371669,"ECCENTRICITY":0.0001692,"INCLINATION":87.8816,"RA_OF_ASC_NODE":29.1752,"ARG_OF_PERICENTER":81.8864,"MEAN_ANOMALY":278.2455,"EPHEMERIS_TYPE":0,"NORAD_CAT_ID":45156,"ELEMENT_SET_NO":999,"REV_AT_EPOCH":31259,"BSTAR":0.0010158326,"MEAN_MOTION_DOT":0.00000367,"MEAN_MOTION_DDOT":0},{"OBJECT_NAME":"ONEWEB-0053","OBJECT_ID":"2020-008AC","EPOCH":"2026-07-22T18:46:53.434560","CLASSIFICATION_TYPE":"U","MEAN_MOTION":13.10374111,"ECCENTRICITY":0.00013482,"INCLINATION":87.8816,"RA_OF_ASC_NODE":29.1886,"ARG_OF_PERICENTER":83.2242,"MEAN_ANOMALY":276.9039,"EPHEMERIS_TYPE":0,"NORAD_CAT_ID":45157,"ELEMENT_SET_NO":999,"REV_AT_EPOCH":31257,"BSTAR":-0.0014021107,"MEAN_MOTION_DOT":-0.00000477,"MEAN_MOTION_DDOT":0},{"OBJECT_NAME":"ONEWEB-0054","OBJECT_ID":"2020-008AD","EPOCH":"2026-07-22T06:48:32.526720","CLASSIFICATION_TYPE":"U","MEAN_MOTION":13.10373472,"ECCENTRICITY":0.00018282,"INCLINATION":87.8819,"RA_OF_ASC_NODE":29.2739,"ARG_OF_PERICENTER":87.25,"MEAN_ANOMALY":272.8837,"EPHEMERIS_TYPE":0,"NORAD_CAT_ID":45158,"ELEMENT_SET_NO":999,"REV_AT_EPOCH":31262,"BSTAR":0.0015390544,"MEAN_MOTION_DOT":0.0000055,"MEAN_MOTION_DDOT":0}]}
