{"epoch":1784799577,"count":18318,"objects":[{"id":"45142","name":"ONEWEB-0033","type":"PAYLOAD","l1":"1 45142U 20008M   26203.48223098 -.00000236  00000-0 -71344-3 0  9990","l2":"2 45142  87.8818  29.2415 0002312  93.2440 266.8952 13.10375303312832"},{"id":"45143","name":"ONEWEB-0035","type":"PAYLOAD","l1":"1 45143U 20008N   26203.80815897  .00000640  00000-0  17966-2 0  9997","l2":"2 45143  87.8820  29.1698 0001828  90.7958 269.3378 13.10378250312604"},{"id":"45144","name":"ONEWEB-0036","type":"PAYLOAD","l1":"1 45144U 20008P   26203.48041148 -.00000309  00000-0 -92093-3 0  9991","l2":"2 45144  87.8839  29.2540 0001628  84.6398 275.4915 13.10377043312985"},{"id":"45145","name":"ONEWEB-0038","type":"PAYLOAD","l1":"1 45145U 20008Q   26203.72316813 -.00000339  00000-0 -99158-3 0  9995","l2":"2 45145  87.8905  14.0055 0002493 134.9810 225.1520 13.11415775314984"},{"id":"45146","name":"ONEWEB-0039","type":"PAYLOAD","l1":"1 45146U 20008R   26203.79105870 -.00000102  00000-0 -32775-3 0  9992","l2":"2 45146  87.8825  29.1710 0001302  91.8450 268.2827 13.10375723312826"},{"id":"45147","name":"ONEWEB-0040","type":"PAYLOAD","l1":"1 45147U 20008S   26203.47882833 -.00000382  00000-0 -11317-2 0  9997","l2":"2 45147  87.8819  29.2436 0001744  79.1467 280.9857 13.10374690312481"},{"id":"45149","name":"ONEWEB-0043","type":"PAYLOAD","l1":"1 45149U 20008U   26203.48065905 -.00000489  00000-0 -14359-2 0  9990","l2":"2 45149  87.8829  29.2332 0001273  88.3644 271.7629 13.10375232312809"},{"id":"45150","name":"ONEWEB-0044","type":"PAYLOAD","l1":"1 45150U 20008V   26203.05124933  .00000663  00000-0  18643-2 0  9994","l2":"2 45150  87.8824  29.3206 0001679  87.0276 273.1044 13.10374109313040"},{"id":"45151","name":"ONEWEB-0045","type":"PAYLOAD","l1":"1 45151U 20008W   26203.87053803 -.00000105  00000-0 -33101-3 0  9992","l2":"2 45151  87.8900  13.9563 0001696  96.2789 263.8532 13.11415463315085"},{"id":"45152","name":"ONEWEB-0047","type":"PAYLOAD","l1":"1 45152U 20008X   26203.80790083  .00000608  00000-0  17066-2 0  9991","l2":"2 45152  87.8826  29.1688 0001938  94.5557 265.5791 13.10373961312867"},{"id":"45153","name":"ONEWEB-0048","type":"PAYLOAD","l1":"1 45153U 20008Y   26203.80295049  .00000474  00000-0  13212-2 0  9994","l2":"2 45153  87.8819  29.1880 0001744  93.5719 266.5608 13.10375926312476"},{"id":"45154","name":"ONEWEB-0049","type":"PAYLOAD","l1":"1 45154U 20008Z   26203.50076619  .00000638  00000-0  17913-2 0  9996","l2":"2 45154  87.8817  29.2373 0001748  74.8448 285.2873 13.10374067312655"},{"id":"45155","name":"ONEWEB-0051","type":"PAYLOAD","l1":"1 45155U 20008AA  26203.86883939 -.00000056  00000-0 -19395-3 0  9990","l2":"2 45155  87.8893  13.9619 0001831  93.0313 267.1024 13.11415999315763"},{"id":"45156","name":"ONEWEB-0052","type":"PAYLOAD","l1":"1 45156U 20008AB  26203.75048068  .00000367  00000-0  10158-2 0  9995","l2":"2 45156  87.8816  29.1752 0001692  81.8864 278.2455 13.10371669312590"},{"id":"45157","name":"ONEWEB-0053","type":"PAYLOAD","l1":"1 45157U 20008AC  26203.78256290 -.00000477  00000-0 -14021-2 0  9994","l2":"2 45157  87.8816  29.1886 0001348  83.2242 276.9039 13.10374111312579"},{"id":"45158","name":"ONEWEB-0054","type":"PAYLOAD","l1":"1 45158U 20008AD  26203.28370980  .00000550  00000-0  15391-2 0  9994","l2":"2 45158  87.8819  29.2739 0001828  87.2500 272.8837 13.10373472312621"}]}